STARLINK-31719          
1 59495U 24071M   26068.17238148  .00002788  00000+0  11079-3 0  9997
2 59495  42.9990 342.9151 0002138 231.8479 128.2180 15.27581616108126
FLOCK 4G-24             
1 62637U 25009AE  26068.72509072  .00010513  00000+0  38996-3 0  9991
2 62637  97.4061 151.5140 0001802 280.2808  79.8228 15.27784978 63732
